[{"OBJECT_NAME":"STARLINK-34982","OBJECT_ID":"2025-179J","EPOCH":"2026-03-09T16:14:18.215808","MEAN_MOTION":15.05649934,"ECCENTRICITY":6.969e-5,"INCLINATION":97.603,"RA_OF_ASC_NODE":112.909,"ARG_OF_PERICENTER":117.7147,"MEAN_ANOMALY":242.4151,"EPHEMERIS_TYPE":0,"CLASSIFICATION_TYPE":"U","NORAD_CAT_ID":65243,"ELEMENT_SET_NO":999,"REV_AT_EPOCH":3197,"BSTAR":0.00016155937,"MEAN_MOTION_DOT":2.271e-5,"MEAN_MOTION_DDOT":0},{"OBJECT_NAME":"CZ-6A DEB","OBJECT_ID":"2024-140TY","EPOCH":"2026-03-09T15:25:48.532512","MEAN_MOTION":14.77098477,"ECCENTRICITY":0.0162256,"INCLINATION":89.1158,"RA_OF_ASC_NODE":288.8548,"ARG_OF_PERICENTER":182.348,"MEAN_ANOMALY":177.7001,"EPHEMERIS_TYPE":0,"CLASSIFICATION_TYPE":"U","NORAD_CAT_ID":61311,"ELEMENT_SET_NO":999,"REV_AT_EPOCH":8223,"BSTAR":0.00066942,"MEAN_MOTION_DOT":5.907e-5,"MEAN_MOTION_DDOT":0}]
